{"type":"FeatureCollection","features":[{"type":"Feature","geometry":{"type":"Polygon","coordinates":[[[-92.920961941879,44.9489973208846],[-92.9193561069598,44.9489811152073],[-92.9136516871163,44.949032032325],[-92.9085312457253,44.9490416202049],[-92.9085123747207,44.9490416551239],[-92.9059710242816,44.9490463285043],[-92.903410802349,44.9490509794101],[-92.8983279841539,44.9490603755709],[-92.8965513473737,44.9490636061542],[-92.8957943980923,44.9490649746448],[-92.8932451640632,44.9490695455184],[-92.8881623155326,44.9490784946641],[-92.8857754713944,44.9490826182708],[-92.8830794639584,44.9490872175942],[-92.8812954889962,44.9490905307787],[-92.8812551354125,44.9490906053061],[-92.8806885696662,44.9490916514618],[-92.8797230334116,44.9490934280397],[-92.8791436989557,44.9490944897134],[-92.878190914772,44.9490962302263],[-92.8779753378639,44.9490966233301],[-92.8779014388493,44.9490967574699],[-92.8775538381341,44.9490973892825],[-92.8772448563348,44.9490979503068],[-92.8757115754914,44.9491007214787],[-92.8756919657226,44.9491007566475],[-92.8728712099444,44.949105800952],[-92.8727437590906,44.9491060231656],[-92.8677672715679,44.9491147063114],[-92.8626633302292,44.9491233844735],[-92.862535879252,44.9491235179123],[-92.862534533339,44.9455018623751],[-92.8625343795977,44.9450886464983],[-92.862533399318,44.9424501209488],[-92.8625331877112,44.9418802036316],[-92.862533055496,44.940689558489],[-92.8625329546205,44.9397856706144],[-92.8625328618891,44.9389628200751],[-92.8625327809594,44.9382357277428],[-92.8625323742418,44.9345909831754],[-92.8625323711218,44.9345898260241],[-92.862528981755,44.9334583740214],[-92.862527707337,44.9330332225089],[-92.8625261795825,44.9325230410116],[-92.8625247586603,44.932048651991],[-92.8625242648648,44.9318840655937],[-92.8625215587743,44.9309805450068],[-92.8625215541123,44.9309788434713],[-92.8625133358178,44.9282347495182],[-92.8625107445647,44.927369684334],[-92.8625107461733,44.9273678577225],[-92.8625110849424,44.9268485862742],[-92.8625117621304,44.9258118752459],[-92.8625121506632,44.9252157887696],[-92.8625131225254,44.9237279131581],[-92.8625131241202,44.9237260595512],[-92.8625131365568,44.9237055915929],[-92.8625141850938,44.922101535797],[-92.8625153917235,44.9202519322876],[-92.8625153925973,44.9202511566516],[-92.8625155003033,44.9200861396501],[-92.8625154930185,44.9200842581501],[-92.8625146156683,44.9198722101475],[-92.8625146027493,44.9198692056866],[-92.8625142194071,44.9198674889478],[-92.862509113164,44.918599020417],[-92.8625006088643,44.916485911556],[-92.8625005987783,44.9164834973679],[-92.8624976035056,44.9157594469639],[-92.8624857220188,44.9128858521435],[-92.8624857127624,44.9128850765091],[-92.8624607239273,44.910727752114],[-92.86244377321,44.9092643404516],[-92.8624437347982,44.909260990464],[-92.8624131903513,44.9066234879064],[-92.8624018269685,44.9056422622553],[-92.8624018178442,44.9056392316913],[-92.8623990412283,44.9046518984597],[-92.8623916499435,44.9020237513118],[-92.8623916406995,44.902020480496],[-92.8623913861768,44.9019299153392],[-92.8623840124496,44.8993074681427],[-92.8623832412354,44.8990329975173],[-92.8623814754671,44.8984050203096],[-92.862381477601,44.898401715296],[-92.862381847904,44.8977567670002],[-92.8623821533226,44.8972243411875],[-92.8623829753495,44.8957944755613],[-92.8623835636127,44.894770328391],[-92.8623853035851,44.8917417625128],[-92.8623856516121,44.8911356350492],[-92.8623856337045,44.8911302370686],[-92.862385056274,44.8909613537949],[-92.8623732013675,44.8874916443965],[-92.8623607501521,44.8838473958602],[-92.8623607383497,44.8838440611477],[-92.8623479376935,44.8802037299593],[-92.8623479259099,44.8802004294377],[-92.8623455558556,44.8795263194375],[-92.8623436288142,44.8789781484033],[-92.8623351268837,44.8765598916567],[-92.8623351240629,44.876556795389],[-92.8623350725851,44.8765047005282],[-92.8623324527699,44.8738182895108],[-92.862331563957,44.8729076947688],[-92.8623306551173,44.8719747871197],[-92.8623302048338,44.871514023231],[-92.8623280028842,44.8692555360267],[-92.862327999623,44.8692540810224],[-92.8623268692359,44.868746621947],[-92.8623198695844,44.8656032078335],[-92.8623157667774,44.8637608614306],[-92.8623138441511,44.862896925435],[-92.8623119397226,44.8620413945105],[-92.8623117373474,44.8619507117272],[-92.8624389959082,44.8619506946627],[-92.8625662484088,44.8619512029521],[-92.8675257954464,44.8619709148311],[-92.872612599655,44.8619909084293],[-92.8777033723879,44.8620107378037],[-92.8827421928642,44.8620301404881],[-92.8827941484184,44.8620303393541],[-92.8830133210905,44.8620300759572],[-92.88788009829,44.8620241164432],[-92.8929660468292,44.8620176670399],[-92.8980498347384,44.8619989752886],[-92.9027848562845,44.8619813622432],[-92.9028348187132,44.8619811752803],[-92.903133619082,44.8619800581387],[-92.9032500535623,44.8619797376672],[-92.9032978171426,44.8619796067368],[-92.9034261937801,44.8619792526743],[-92.9061170420092,44.8619718124478],[-92.9070332580246,44.8619692641602],[-92.9082202985684,44.8619659508754],[-92.9097894258304,44.8619615539648],[-92.9114048145787,44.8619570049],[-92.9133069752541,44.8619516179556],[-92.9154935191962,44.8619544254991],[-92.9176687764465,44.8619571779194],[-92.9183937761943,44.8619580853501],[-92.9189028114738,44.8619587200819],[-92.9234797977167,44.8619646003355],[-92.9234807751779,44.861964256733],[-92.9246339697938,44.8619628043541],[-92.9248503610776,44.8619625177802],[-92.9248734787128,44.8619624875552],[-92.9250667523585,44.8619622307963],[-92.9269793961447,44.8619596751918],[-92.928570130013,44.8619575256174],[-92.932005316753,44.8619528087979],[-92.9326416093606,44.8619519234461],[-92.9335398362945,44.8619506682507],[-92.9336596779861,44.861950500049],[-92.9337944008846,44.8619503096341],[-92.9387490673638,44.8619432181189],[-92.9405216576341,44.8619406296927],[-92.9437111955831,44.8619358999416],[-92.9438384550191,44.8619357093904],[-92.9439657180132,44.8619360558857],[-92.9443361809008,44.8619370623384],[-92.9444169312323,44.8619372816643],[-92.9446639659622,44.8619379517325],[-92.9449583521951,44.8619387495596],[-92.9449917510319,44.8619388401858],[-92.9453195361098,44.8619397276983],[-92.945647321196,44.8619406142701],[-92.9459751075555,44.8619414998998],[-92.946302892658,44.8619423845899],[-92.9466306777687,44.8619432683392],[-92.946958504639,44.8619441511063],[-92.9474505005298,44.8619454736869],[-92.9485476876084,44.8619484176663],[-92.9485489148559,44.8619484209273],[-92.9489162846664,44.8619488802512],[-92.9492613396059,44.8619496714845],[-92.9492624279607,44.8619504442238],[-92.950087847987,44.8619525664692],[-92.9504723914437,44.8619535629166],[-92.9508001677842,44.8619544266097],[-92.9510340761443,44.861955048709],[-92.9511279909612,44.861955297412],[-92.9514558128827,44.8619561681744],[-92.951802920314,44.8619570881778],[-92.952150013837,44.8619580071407],[-92.9522680915291,44.8619583197471],[-92.9524971073689,44.8619589250488],[-92.9528442009096,44.8619598419019],[-92.953250177058,44.8619609136443],[-92.9536799200751,44.8619620452839],[-92.9539936340035,44.861961773659],[-92.9546704839022,44.8619622704059],[-92.9566868708414,44.8619607005909],[-92.9569192011767,44.861960538497],[-92.9590765976799,44.8619582375195],[-92.9607458054234,44.8619566655285],[-92.9622305641396,44.8619552468723],[-92.9640311885904,44.8619535000607],[-92.9641584721867,44.8619533759213],[-92.9642857666364,44.8619530167749],[-92.9658172498081,44.8619486868699],[-92.966472274639,44.8619468282539],[-92.9675023607392,44.8619439005007],[-92.9685650531394,44.8619408681634],[-92.9692528499261,44.8619389008001],[-92.9697464934283,44.8619374862007],[-92.9699930924945,44.8619367783674],[-92.970223451602,44.8619361173627],[-92.9708054975221,44.8619344446199],[-92.9710937553964,44.8619336140708],[-92.9712673935716,44.8619331138467],[-92.971641348927,44.8619320362093],[-92.9721655339174,44.8619305228731],[-92.9724971750301,44.8619295640499],[-92.9727471406789,44.8619288407686],[-92.9728288173945,44.8619286042621],[-92.9731604572151,44.8619276435144],[-92.9734920982898,44.861926682702],[-92.9741740216647,44.8619247019074],[-92.9741812952281,44.8619246812397],[-92.9743472245508,44.8619241984374],[-92.9763326872759,44.8619222479541],[-92.9771040426536,44.8619214810792],[-92.9778790809744,44.8619207052329],[-92.9783611207972,44.8619202200915],[-92.9788431606043,44.8619197320157],[-92.9794274039547,44.8619191391048],[-92.9796119310818,44.8619189505957],[-92.9796337999412,44.8619189279822],[-92.9801903912087,44.8619183593892],[-92.9805759182587,44.8619179637695],[-92.9838977109504,44.8619144992838],[-92.9840249690862,44.8619143647342],[-92.9840523107851,44.8647567348058],[-92.9840597420403,44.8655292846453],[-92.9840641106328,44.8660008906649],[-92.9840707486477,44.8666865585559],[-92.9840844383165,44.8680964219404],[-92.9840902709894,44.8687026439389],[-92.9840945186775,44.8691442013448],[-92.9840943893361,44.8695556260057],[-92.9840943637258,44.8696379125536],[-92.9840941037366,44.8704607383807],[-92.9840938927484,44.8711331613651],[-92.9840936479695,44.8719099334135],[-92.9840936420432,44.8719270515431],[-92.9840934264046,44.8726146443762],[-92.984093383497,44.8727508893315],[-92.9840932716802,44.8731074500678],[-92.9840932282221,44.8732444526579],[-92.9840928909313,44.8743163257631],[-92.9840928402089,44.8744801095802],[-92.9840928397031,44.8744808852229],[-92.9840926148155,44.8751935079595],[-92.9840925029328,44.8755500316503],[-92.9840922500309,44.8763575732305],[-92.9840931678023,44.8765496063473],[-92.9840940839942,44.8767415161848],[-92.9840965323586,44.8772536317403],[-92.9840982793986,44.8776192832838],[-92.9840995375364,44.8778825129681],[-92.984102369081,44.878474919409],[-92.9841051872024,44.8790645804671],[-92.9841072874181,44.8795038669683],[-92.9841082187869,44.8796986345015],[-92.9841095134613,44.8799695097771],[-92.9841095275656,44.8799724872492],[-92.9841113660243,44.8803570697225],[-92.984113305345,44.8807628130041],[-92.9841163205971,44.8813934340739],[-92.9841251635264,44.8832433135455],[-92.9841268058361,44.8835866233272],[-92.984126809128,44.8835873989637],[-92.9841305770697,44.8839575591051],[-92.9841314209871,44.8840398092038],[-92.9841322649118,44.884122061101],[-92.9841358760485,44.8844922448097],[-92.9841522470866,44.8861258698128],[-92.9841525589062,44.886157043489],[-92.9841536682018,44.8862676823655],[-92.984153967956,44.8862976287093],[-92.9841550775986,44.8864083980558],[-92.9841553688556,44.886437513881],[-92.9841622413115,44.8871231789946],[-92.984163059691,44.8872048199065],[-92.9830739326856,44.8872065050551],[-92.9826906497967,44.8872070960344],[-92.9821993367871,44.8872078508897],[-92.9820527432125,44.8872080760719],[-92.9814161732255,44.8872090508132],[-92.980886454919,44.8872098597096],[-92.980903177203,44.887191225435],[-92.9809106592488,44.8871828870815],[-92.9809195294642,44.8871724296695],[-92.9809338967017,44.8871554891857],[-92.9809355104397,44.8871534733146],[-92.9809508869931,44.8871342630911],[-92.9809561546625,44.8871276822355],[-92.9809658099465,44.8871148761883],[-92.9809774154579,44.8870994842508],[-92.9809803515258,44.8870953431067],[-92.9809976690113,44.8870709141412],[-92.9810048143065,44.887061078925],[-92.9810119595971,44.8870512428085],[-92.981014419141,44.8870478572243],[-92.9810187298915,44.8870412767033],[-92.9810253038139,44.8870312406661],[-92.9810298301635,44.8870243314335],[-92.9810316953244,44.8870211490759],[-92.9810376865336,44.8870109311292],[-92.9810438730739,44.8870003781984],[-92.9810490938866,44.8869903349117],[-92.9810544922942,44.8869799503652],[-92.9810565264551,44.8869760362392],[-92.9810595132764,44.8869694754254],[-92.9810643100733,44.8869589431871],[-92.9810677688969,44.8869513469755],[-92.9810689346356,44.8869483751789],[-92.9810731210059,44.8869377123569],[-92.9810775815185,44.8869263509238],[-92.9810809150292,44.8869162821828],[-92.9810859467119,44.8869010912985],[-92.9810882685154,44.8868963147771],[-92.9810901811048,44.8868923792122],[-92.9810920936962,44.886888444547],[-92.9810931098035,44.886886355662],[-92.9810941747482,44.8868845555544],[-92.9810964445287,44.8868807185068],[-92.9810987143065,44.8868768805594],[-92.9811009853497,44.8868730426102],[-92.9811016104494,44.8868719845191],[-92.9811035059575,44.886869288021],[-92.9811061253686,44.8868655629976],[-92.9811087422502,44.8868618388773],[-92.9811114146304,44.8868580391008],[-92.981114307963,44.8868545179807],[-92.9811172618617,44.8868509229975],[-92.9811202170281,44.8868473289123],[-92.9811224781947,44.8868445779518],[-92.9811232469603,44.8868437689233],[-92.9811265239944,44.8868403192916],[-92.9811298035596,44.8868368696566],[-92.9811330818564,44.8868334191233],[-92.9811347544592,44.8868316596203],[-92.9811365109807,44.8868300484782],[-92.9811400997927,44.8868267577099],[-92.9811436886042,44.8868234669414],[-92.9811472761542,44.8868201779741],[-92.9811481916664,44.8868193381618],[-92.9811510842717,44.8868170173947],[-92.9811549671803,44.8868139008093],[-92.9811588513518,44.8868107833224],[-92.9811627329961,44.8868076676382],[-92.9811673310297,44.8868035558313],[-92.9811697354922,44.8868014048608],[-92.9811721399568,44.8867992547901],[-92.9811736427454,44.8867979103211],[-92.9811746306297,44.8867971585967],[-92.9811772670857,44.8867951494965],[-92.9811799035415,44.8867931403962],[-92.9811825399995,44.8867911321957],[-92.9811856047078,44.8867887977078],[-92.9811879917158,44.8867872451364],[-92.9811908424792,44.8867853914263],[-92.9811936945082,44.8867835377146],[-92.9811965465371,44.8867816840028],[-92.9811985418161,44.8867803856862],[-92.9811994556507,44.8867798797069],[-92.9812025042971,44.8867781931059],[-92.9812055542022,44.8867765038039],[-92.981208602846,44.8867748163029],[-92.9812123757331,44.8867727283464],[-92.9812148346492,44.8867715769987],[-92.9812180622132,44.8867700656295],[-92.9812212897771,44.8867685542603],[-92.9812245173431,44.8867670437908],[-92.9812270179773,44.8867658725929],[-92.9812311629183,44.886764250258],[-92.9812345491758,44.8867629249445],[-92.9812379341698,44.8867616005324],[-92.9812413191636,44.8867602761202],[-92.9812423775266,44.8867598617345],[-92.981244798163,44.8867590847588],[-92.9812483203541,44.8867579545287],[-92.981251842545,44.8867568242985],[-92.9812553647359,44.8867556940681],[-92.9812583582823,44.8867547336876],[-92.9812625388195,44.8867536664912],[-92.9812661754428,44.8867527376709],[-92.9812698133318,44.8867518088487],[-92.9812734486891,44.8867508800298],[-92.981274859067,44.8867505200765],[-92.981277141332,44.8867500789102],[-92.9812808696206,44.8867493578279],[-92.9812845991749,44.8867486367438],[-92.9812883274633,44.8867479156612],[-92.9812917774258,44.8867472480281],[-92.9812958567705,44.8867467010546],[-92.9812996539529,44.8867461922386],[-92.9813034523986,44.8867456825212],[-92.9813072495808,44.886745173705],[-92.9813090058251,44.8867449383774],[-92.9813110698415,44.8867447800351],[-92.98131491061,44.8867444862179],[-92.9813187539076,44.8867441914976],[-92.9813225959417,44.8867438976785],[-92.9813264379759,44.8867436038593],[-92.9813304647036,44.886743269309],[-92.9813344939627,44.8867429347553],[-92.9813385219561,44.886742600203],[-92.9813425512151,44.886742265649],[-92.9813451631451,44.886742048108],[-92.9813465600123,44.8867418492382],[-92.9813505367854,44.8867412843993],[-92.981354513556,44.8867407186604],[-92.9813584903266,44.8867401529215],[-92.981362467097,44.8867395871824],[-92.9813636501332,44.8867394191832],[-92.9813663877666,44.8867388622486],[-92.9813702880088,44.8867380689553],[-92.981374188251,44.8867372756618],[-92.9813780872296,44.8867364832697],[-92.9813817762044,44.8867357334409],[-92.9813857757308,44.8867346637752],[-92.981389571612,44.8867336483622],[-92.9813933674954,44.8867326338489],[-92.9813971646421,44.8867316184341],[-92.9813994224409,44.8867310153304],[-92.9814009071405,44.8867305167077],[-92.9814045746301,44.886729286405],[-92.9814082433854,44.8867280561005],[-92.9814119121405,44.8867268257958],[-92.9814164724726,44.8867252955965],[-92.9814191302693,44.8867242087732],[-92.9814226466024,44.8867227708087],[-92.9814261629352,44.886721332844],[-92.9814296780022,44.8867198948808],[-92.9814328137477,44.8867186130775],[-92.9814365126558,44.8867168023524],[-92.9814398538085,44.8867151666552],[-92.9814431936952,44.8867135309596],[-92.9814465335818,44.8867118952638],[-92.9814483413181,44.886711010201],[-92.9814497821159,44.886710174204],[-92.9814529240693,44.8867083525032],[-92.981456067286,44.8867065299007],[-92.981459211766,44.8867047063968],[-92.9814629489933,44.8867025383946],[-92.9814653181014,44.8867009201541],[-92.9814682431629,44.8866989232703],[-92.981471166956,44.8866969254881],[-92.9814740920148,44.8866949277043],[-92.9814765445152,44.8866932526671],[-92.9814796644553,44.8866907453351],[-92.9814823524029,44.8866885849921],[-92.9814850403527,44.8866864255489],[-92.9814877270365,44.8866842661073],[-92.9814890356423,44.8866832143258],[-92.981490281892,44.886682032152],[-92.9814927137817,44.8866797245713],[-92.9814951469369,44.8866774169889],[-92.9814975788261,44.8866751094081],[-92.9815003415361,44.8866724891624],[-92.9815022081544,44.8866703820737],[-92.9815043688341,44.8866679416721],[-92.9815065307793,44.8866655012688],[-92.9815086927266,44.8866630617652],[-92.9815103877011,44.8866611483593],[-92.9815126669153,44.8866580419407],[-92.9815145425036,44.8866554849329],[-92.9815164193597,44.8866529288231],[-92.9815182949476,44.8866503718152],[-92.981519107241,44.8866492648888],[-92.9815200007884,44.8866477610386],[-92.9815215786743,44.8866451054372],[-92.9815231578236,44.8866424489344],[-92.981524735707,44.8866397924332],[-92.981526443404,44.8866369189081],[-92.9815276090276,44.8866344069122],[-92.9815288791247,44.8866316680273],[-92.9815301504898,44.8866289300406],[-92.9815314205867,44.8866261911558],[-92.9815323482985,44.8866241905633],[-92.9815335593416,44.886620635623],[-92.9815345128385,44.8866178323622],[-92.981535467601,44.8866150290998],[-92.9815364211023,44.8866122276387],[-92.9815367829048,44.8866111644878],[-92.9815371745438,44.8866093976431],[-92.9815378051629,44.8866065498106],[-92.9815384370453,44.8866037010765],[-92.98153906893,44.8866008532424],[-92.9815397170635,44.8865979253036],[-92.9815400136675,44.8865951318934],[-92.9815403176579,44.8865922574902],[-92.981540622907,44.886589380386],[-92.9815409268974,44.8865865059829],[-92.9815411332793,44.8865845603154],[-92.981541125825,44.8865836290167],[-92.9815411007017,44.8865807460425],[-92.9815410768442,44.8865778630667],[-92.9815410529844,44.886574979191],[-92.9815410278634,44.8865720971167],[-92.9815410203906,44.8865711586195],[-92.9815407825212,44.8865692216268],[-92.9815404296011,44.8865663498757],[-92.9815400766787,44.8865634772249],[-92.9815397237563,44.8865606045741],[-92.9815393798859,44.8865578065961],[-92.9815386838416,44.8865548920992],[-92.9815380044345,44.8865520486661],[-92.9815373250297,44.8865492061329],[-92.9815362233865,44.8865445933119],[-92.9815341219037,44.8865286783141],[-92.9815327136147,44.8865180182352],[-92.9815324330056,44.8865147171786],[-92.9815312427323,44.8865007266021],[-92.9815304478882,44.8864913749578],[-92.9815302701514,44.8864867303441],[-92.9815297354789,44.8864727200206],[-92.9815294288132,44.88646469317],[-92.981529480533,44.886458709334],[-92.9815296002316,44.8864446936623],[-92.9815296577274,44.8864380016644],[-92.9815300629612,44.8864306847438],[-92.9815308383372,44.8864166799188],[-92.9815311347079,44.8864113310346],[-92.9815320175241,44.8864026916661],[-92.9815334473525,44.886388713886],[-92.9815338572929,44.8863847091777],[-92.9815353430419,44.8863747642953],[-92.9815374248271,44.8863608279603],[-92.9815378230278,44.8863581666909],[-92.981540033274,44.8863469377321],[-92.9815427657863,44.8863330572408],[-92.9815430269221,44.8863317323744],[-92.9815460844998,44.886319242575],[-92.9815494639873,44.8863054359284],[-92.9811250889373,44.8863060839738],[-92.9804306611495,44.8863071406775],[-92.9804216438119,44.8854860198505],[-92.9804192685058,44.8852696326888],[-92.9794726600067,44.8847334441344],[-92.9782151394214,44.8840211167762],[-92.9780341102612,44.8839185702872],[-92.9778572162417,44.8838183649949],[-92.9774641069584,44.8835956778962],[-92.9766009382114,44.8835967216859],[-92.9763308953961,44.8835970475298],[-92.9760222750279,44.8835974182412],[-92.975713653388,44.8835977881202],[-92.9753085891383,44.8835982725997],[-92.9746913470925,44.8835990085647],[-92.9743827254266,44.8835993748471],[-92.9743892212019,44.8841967037977],[-92.9744220996041,44.8872195250632],[-92.9744417900215,44.8890295992984],[-92.9752057092334,44.8890283694306],[-92.9761629112779,44.8890268200055],[-92.9767416447453,44.8890258796994],[-92.9773203794499,44.8890249355592],[-92.9781537559137,44.8890235722867],[-92.9784621707701,44.8890230656034],[-92.9795177278579,44.8890213270388],[-92.9795311426456,44.8890213044681],[-92.9795530166434,44.8906249624734],[-92.9795539523957,44.890693527118],[-92.9795558226417,44.8908306564062],[-92.9795569258053,44.8909677866733],[-92.97955747802,44.8910363509049],[-92.9795654347897,44.8920253344596],[-92.9795848836587,44.894442312902],[-92.9798395457381,44.8944419730012],[-92.9842166364021,44.8944360437156],[-92.9842339601745,44.8980498465986],[-92.9842568474373,44.8999849458475],[-92.9842665785049,44.9008077189907],[-92.9842683713938,44.9009592405623],[-92.9842714454192,44.9012191050656],[-92.9842763111447,44.9016304911122],[-92.9842768948349,44.9016798576519],[-92.9842858166057,44.9024340659178],[-92.9843094492271,44.9044318732801],[-92.9843117060252,44.9046226736345],[-92.9843120816993,44.9046544589967],[-92.9843285345437,44.9059683605627],[-92.984333560949,44.9063450178176],[-92.984340585354,44.9068715558325],[-92.9843425795025,44.9070209561193],[-92.9843450652801,44.9072072381296],[-92.9843505538759,44.9076186328144],[-92.9843544156963,44.9081152156704],[-92.9843589036033,44.9086922551878],[-92.9843607056599,44.9089239515246],[-92.984362632472,44.9091718514884],[-92.9843629433876,44.9092117631062],[-92.9843728751077,44.9104888906602],[-92.9843742229,44.9106621609939],[-92.9843887394574,44.9125286708255],[-92.984389568409,44.9126184015556],[-92.9843895755061,44.9126191771831],[-92.98440438353,44.91422190115],[-92.9844220632645,44.9161353271271],[-92.9844278951772,44.9167665317177],[-92.9844401939798,44.9180975773447],[-92.9844410300267,44.9181880125284],[-92.9844438497519,44.9184931496076],[-92.9844462573721,44.9187536269576],[-92.9844483542815,44.9189805921935],[-92.9844553893094,44.9197419829299],[-92.984456119443,44.9199490110544],[-92.9844568253389,44.9201492060497],[-92.9844568400689,44.9201533757477],[-92.9844582895903,44.9205647685373],[-92.9844597391426,44.920976162197],[-92.9844605244017,44.9211988873783],[-92.984461188721,44.9213875549271],[-92.9844614791481,44.9214698340088],[-92.9844681568326,44.9233646982421],[-92.9844768976718,44.9258447038044],[-92.9844809265629,44.9269874112436],[-92.9844836510525,44.9276133458631],[-92.9844843530712,44.9277747741513],[-92.9844850639427,44.9279361952248],[-92.9844864559287,44.9282587935492],[-92.9844966511473,44.9306081753413],[-92.9844991671649,44.9311428765257],[-92.9845123795762,44.9342289371278],[-92.9845179737116,44.9351317945134],[-92.9845208609387,44.9355958275309],[-92.9845235832402,44.9360346436368],[-92.984523607524,44.9360385874589],[-92.9845261361575,44.9364460644103],[-92.9845291853929,44.9369374971255],[-92.9845348168939,44.9378403495321],[-92.9845411671847,44.9388683171506],[-92.9845572385438,44.9414517308669],[-92.9845899283497,44.9435685711905],[-92.984612299527,44.9450153472847],[-92.9846131526632,44.9450705069378],[-92.9846270577907,44.9459742972842],[-92.9846560701502,44.9478458233022],[-92.9846691136098,44.9486892500245],[-92.9846696695183,44.9487797714728],[-92.9846696911505,44.9487831817052],[-92.9846704090676,44.9489001545049],[-92.9844118882265,44.94883605635],[-92.9843851160778,44.9488294817951],[-92.9843582897497,44.9488230215809],[-92.9843314092418,44.9488166757072],[-92.984304475819,44.9488104432725],[-92.9842774907527,44.9488043260748],[-92.9842504540406,44.9487983232142],[-92.9842233669518,44.9487924355888],[-92.9841962307511,44.9487866622971],[-92.9841690467101,44.9487810051369],[-92.9841559492877,44.9487783392158],[-92.9841418160934,44.9487754632068],[-92.9841388026193,44.9487748634169],[-92.9841145389031,44.9487700374066],[-92.9840872164062,44.9487647277345],[-92.9840598498674,44.9487595332889],[-92.9840324392912,44.9487544558697],[-92.9840049872115,44.9487494954732],[-92.9839774936236,44.9487446503],[-92.9839499598015,44.9487399230476],[-92.9839223870097,44.9487353128146],[-92.9838947752481,44.948730819601],[-92.9838671257836,44.948726443405],[-92.9838394411526,44.9487221851232],[-92.9838117200878,44.9487180447571],[-92.983783965121,44.9487140214036],[-92.9837561775237,44.9487101168606],[-92.983728356024,44.9487063293301],[-92.9837005044278,44.9487026606068],[-92.9836726214677,44.9486991106921],[-92.9836447096754,44.9486956786832],[-92.9836167690532,44.9486923654795],[-92.9835904105572,44.9486893516222],[-92.9835640282636,44.9486864430673],[-92.983537623442,44.9486836407128],[-92.9835111960896,44.9486809436592],[-92.983484748743,44.9486783528026],[-92.9834582801326,44.9486758672452],[-92.9834317927946,44.9486734878831],[-92.9834052867291,44.9486712147165],[-92.9833787644701,44.9486690477421],[-92.9833522234831,44.948666986963],[-92.9833256675694,44.9486650323744],[-92.9832990967288,44.9486631839763],[-92.9832725109636,44.9486614426683],[-92.9832459128053,44.9486598075474],[-92.9832193009868,44.9486582786152],[-92.9831926780421,44.9486568558685],[-92.9831660439735,44.9486555402069],[-92.9831394000477,44.9486543316288],[-92.9831127462625,44.9486532292344],[-92.9830860851518,44.9486522330205],[-92.9830594167177,44.9486513438867],[-92.9830327409603,44.948650561833],[-92.9830060591463,44.9486498868579],[-92.9829793725404,44.9486493180598],[-92.982952682412,44.9486488563369],[-92.9829259887608,44.9486485016892],[-92.9828992928538,44.9486482541149],[-92.9828725959555,44.9486481127128],[-92.9828458968012,44.9486480783841],[-92.9751018366341,44.9486724579264],[-92.9750611149986,44.9486726380406],[-92.9750203961561,44.948672923414],[-92.9749796775742,44.9486733149495],[-92.9749389617848,44.9486738117442],[-92.974898248792,44.9486744155977],[-92.974857538589,44.9486751238107],[-92.9748168324494,44.9486759390809],[-92.9747761316355,44.9486768596072],[-92.9747354348822,44.9486778862909],[-92.9746947447213,44.9486790182292],[-92.9746906028776,44.9486791439297],[-92.9746540598877,44.9486802563234],[-92.9746133816461,44.9486815996721],[-92.9745727112656,44.9486830491736],[-92.9745320474765,44.9486846039297],[-92.9744913928151,44.948686264837],[-92.9744507472812,44.9486880318955],[-92.9744101108701,44.9486899033057],[-92.9743694835882,44.9486918817669],[-92.9743288679629,44.9486939645767],[-92.9742882627313,44.9486961535362],[-92.974247669158,44.9486984477441],[-92.9742070872451,44.9487008481002],[-92.9741665195242,44.9487033537015],[-92.974125963461,44.9487059645512],[-92.9740854215895,44.9487086806462],[-92.9740448939094,44.9487115019866],[-92.9740043804227,44.948714429472],[-92.973963883659,44.9487174612999],[-92.9739234821672,44.9487205928745],[-92.9739011665037,44.9487223677648],[-92.9738789370652,44.948724168639],[-92.9738567115012,44.9487260000975],[-92.9738344923504,44.9487278639367],[-92.9738122783454,44.9487297601582],[-92.973790069482,44.9487316869625],[-92.9737678657645,44.9487336461491],[-92.9737456671907,44.9487356368183],[-92.9737234750298,44.9487376598682],[-92.9737012892773,44.9487397134993],[-92.9736791086706,44.9487417995128],[-92.9736569344745,44.9487439170072],[-92.9736347654218,44.9487460659842],[-92.9736126027819,44.948748247342],[-92.9735904465525,44.9487504601808],[-92.9735682967314,44.9487527036008],[-92.9735461533229,44.9487549794016],[-92.9735240163248,44.9487572866835],[-92.9735018870063,44.9487596263446],[-92.9734797628289,44.9487619965884],[-92.973457646331,44.9487643992116],[-92.9734355362412,44.9487668324159],[-92.9734176774743,44.9487688248958],[-92.9734134325638,44.9487692980011],[-92.9733913365637,44.9487717950658],[-92.9733692469737,44.9487743236115],[-92.973347165061,44.9487768836367],[-92.9733250908254,44.9487794751414],[-92.9733030242669,44.9487820981256],[-92.9732809641185,44.9487847525909],[-92.9727883891632,44.9488443886367],[-92.9727554187202,44.9488484159277],[-92.9727224316281,44.9488523721448],[-92.972689427885,44.9488562563884],[-92.9726564074932,44.9488600695581],[-92.9726233704528,44.948863811654],[-92.9725903180287,44.9488674817747],[-92.9725572489562,44.9488710808215],[-92.9725241657676,44.9488746078915],[-92.9724910671978,44.9488780638861],[-92.9724579545142,44.9488814488037],[-92.9724248277148,44.9488847617445],[-92.9723916855325,44.94888800271],[-92.9723585305038,44.948891172597],[-92.9723253613596,44.9488942705071],[-92.9722921806342,44.9488972964372],[-92.9722589857957,44.9489002512903],[-92.9722257781069,44.9489031332651],[-92.9721925588396,44.9489059441598],[-92.9721593279936,44.9489086839743],[-92.972126085565,44.948911350909],[-92.972092831558,44.9489139467635],[-92.9720595659707,44.948916470638],[-92.9720262900682,44.948918921631],[-92.9719930038548,44.9489213015424],[-92.9719597085956,44.9489236094706],[-92.9719264017566,44.9489258454187],[-92.9718930871392,44.9489280093822],[-92.9718597622093,44.9489301013641],[-92.9718264295013,44.9489321213613],[-92.9680569323653,44.9489428110408],[-92.964511917824,44.9489527506595],[-92.9587443890103,44.9489907093766],[-92.9586844469151,44.9489911522024],[-92.9575975969242,44.9489982696608],[-92.9567816834059,44.9490035788607],[-92.9567794710657,44.9490035929495],[-92.9559653682266,44.949008964545],[-92.9543337637398,44.9490197227212],[-92.9543340439892,44.9490469658196],[-92.9537584975257,44.9490522810388],[-92.9532944684729,44.9490341191371],[-92.9529759800411,44.9490313435053],[-92.9514468670402,44.9490174153392],[-92.9509370707821,44.9490127666625],[-92.9504273290891,44.949008116554],[-92.9503945116512,44.9490078172688],[-92.9502932514013,44.9490037864119],[-92.949395168579,44.9489680283692],[-92.9486561479964,44.9489385993489],[-92.9474551520889,44.9489100915156],[-92.9467572672553,44.9488935194967],[-92.9465470521577,44.9488929929384],[-92.9459019276117,44.9488913811241],[-92.9452995184102,44.9488968970414],[-92.9441598175958,44.9489073234865],[-92.940590558964,44.9489234572979],[-92.9396617335502,44.948927638016],[-92.9390613443013,44.9489303360509],[-92.9378060652934,44.9489359740767],[-92.9370221800526,44.9489394886589],[-92.935893373319,44.9489445444626],[-92.9356497654572,44.9489629273329],[-92.9354102331763,44.948981001007],[-92.9349472582964,44.9490159348927],[-92.9346768819096,44.9490363343692],[-92.9343804620856,44.9490586989301],[-92.9339622939154,44.9490902472939],[-92.9339621435387,44.9491260155738],[-92.9259946029426,44.9491976906152],[-92.9257674636843,44.9491997255783],[-92.9254728719228,44.94920236431],[-92.925318624649,44.9491886073592],[-92.9252204918715,44.9491798556706],[-92.9249696508757,44.9491680673144],[-92.9245712222893,44.9491493050459],[-92.9237989116739,44.9491129599367],[-92.9224855029962,44.9490502901784],[-92.9215139476271,44.9490166134306],[-92.920961941879,44.9489973208846]]]},"properties":{"city":"Woodbury"}}]}